BEIDOU-2 IGSO-1 (C06)   
1 36828U 10036A   25280.62565082 -.00000091  00000+0  00000+0 0  9997
2 36828  54.2757 165.2484 0051211 217.1628 324.3474  1.00295180 55560
BEIDOU-2 G4 (C04)       
1 37210U 10057A   25280.67235816 -.00000108  00000+0  00000+0 0  9999
2 37210   3.0152  70.1263 0009373 174.3334 174.1774  1.00270079 54750
BEIDOU-2 IGSO-2 (C07)   
1 37256U 10068A   25280.42164125 -.00000191  00000+0  00000+0 0  9990
2 37256  48.0052 274.9634 0048100 217.0733 141.4739  1.00252416 54251
BEIDOU-2 IGSO-3 (C08)   
1 37384U 11013A   25279.77882610 -.00000183  00000+0  00000+0 0  9996
2 37384  62.0555  42.5559 0036351 180.9961 179.4969  1.00286648 53123
BEIDOU-2 IGSO-4 (C09)   
1 37763U 11038A   25280.65889299 -.00000019  00000+0  00000+0 0  9991
2 37763  54.5781 167.9451 0145092 230.4650 307.4545  1.00255535 52115
BEIDOU-2 IGSO-5 (C10)   
1 37948U 11073A   25280.44955521 -.00000136  00000+0  00000+0 0  9994
2 37948  48.1434 274.6712 0109955 221.7809 136.7032  1.00261011 50597
BEIDOU-2 G5 (C05)       
1 38091U 12008A   25280.68177795  .00000061  00000+0  00000+0 0  9994
2 38091   2.9392  70.9132 0008312 221.0939  28.7388  1.00273259 49839
BEIDOU-2 M3 (C11)       
1 38250U 12018A   25280.28143071 -.00000033  00000+0  00000+0 0  9998
2 38250  55.9741 313.3921 0024515 268.2878  91.4940  1.86229684 91239
BEIDOU-2 M4 (C12)       
1 38251U 12018B   25279.67693356 -.00000029  00000+0  00000+0 0  9991
2 38251  55.8768 312.6468 0015642 268.5067  91.3784  1.86231992 91229
BEIDOU-2 M6 (C14)       
1 38775U 12050B   25278.31384791  .00000024  00000+0  00000+0 0  9992
2 38775  56.3194  71.3364 0010677 356.2343   3.7712  1.86230872 88565
BEIDOU-2 G6 (C02)       
1 38953U 12059A   25280.65194648 -.00000171  00000+0  00000+0 0  9993
2 38953   3.7754  76.1502 0006168 306.4992 312.6396  1.00273708 47370
BEIDOU-3S IGSO-1S (C31) 
1 40549U 15019A   25280.53172959 -.00000135  00000+0  00000+0 0  9994
2 40549  49.6759 298.5068 0041114 197.2330 163.2756  1.00253612 38548
BEIDOU-3S M2S (C58)     
1 40748U 15037A   25279.88155949 -.00000029  00000+0  00000+0 0  9993
2 40748  55.0958 310.7594 0012805 257.4752 102.4418  1.86229075 69403
BEIDOU-3S M1S (C57)     
1 40749U 15037B   25279.04682917 -.00000025  00000+0  00000+0 0  9998
2 40749  55.0929 310.7785 0002631 351.4112   8.6481  1.86253842 69399
BEIDOU-3S IGSO-2S (C56) 
1 40938U 15053A   25279.88037645 -.00000138  00000+0  00000+0 0  9995
2 40938  49.6198 261.7957 0062042 189.5690 336.5391  1.00285213 36812
BEIDOU-2 IGSO-6 (C13)   
1 41434U 16021A   25280.29855046 -.00000158  00000+0  00000+0 0  9995
2 41434  59.8749  40.5651 0057205 228.2996 309.7572  1.00265909 34943
BEIDOU-2 G7 (C03)       
1 41586U 16037A   25280.62720272 -.00000349  00000+0  00000+0 0  9991
2 41586   1.5907  66.8516 0005000 341.3567 304.6066  1.00266319  4359
BEIDOU-3 M1 (C19)       
1 43001U 17069A   25279.69023480  .00000014  00000+0  00000+0 0  9991
2 43001  56.4690  71.4489 0007087 312.9882  46.9581  1.86230996 53889
BEIDOU-3 M2 (C20)       
1 43002U 17069B   25280.16544295  .00000010  00000+0  00000+0 0  9994
2 43002  56.4690  71.4687 0005570 352.3117   7.6827  1.86230723 53889
BEIDOU-3 M7 (C27)       
1 43107U 18003A   25273.46610847 -.00000030  00000+0  00000+0 0  9994
2 43107  54.5592 311.3635 0002505  95.4611 264.6300  1.86232594 52511
BEIDOU-3 M8 (C28)       
1 43108U 18003B   25279.31689306 -.00000028  00000+0  00000+0 0  9998
2 43108  54.5472 311.1430 0004918 259.9208 100.0861  1.86230874 52636
BEIDOU-3 M4 (C22)       
1 43207U 18018A   25280.29541606  .00000009  00000+0  00000+0 0  9991
2 43207  56.4288  71.5014 0005098  38.2688 321.7697  1.86230901 52031
BEIDOU-3 M3 (C21)       
1 43208U 18018B   25280.36198693  .00000009  00000+0  00000+0 0  9994
2 43208  56.4282  71.5033 0005058 335.4036  24.5743  1.86230954 52030
BEIDOU-3 M9 (C29)       
1 43245U 18029A   25280.57825830 -.00000032  00000+0  00000+0 0  9997
2 43245  54.4238 308.7758 0002248 244.8002 115.2303  1.86232461 51194
BEIDOU-3 M10 (C30)      
1 43246U 18029B   25280.51310363 -.00000032  00000+0  00000+0 0  9992
2 43246  54.4213 308.8053 0002897 355.4917   4.5599  1.86229018 51170
BEIDOU-2 IGSO-7 (C16)   
1 43539U 18057A   25280.59239719 -.00000101  00000+0  00000+0 0  9998
2 43539  55.1676 165.2526 0092099 236.0274 300.9635  1.00277050 26596
BEIDOU-3 M5 (C23)       
1 43581U 18062A   25280.20091477  .00000030  00000+0  00000+0 0  9996
2 43581  54.0922 190.9072 0003398 310.1276  49.8853  1.86228524 48924
BEIDOU-3 M6 (C24)       
1 43582U 18062B   25278.99045038  .00000021  00000+0  00000+0 0  9992
2 43582  54.0921 190.9375 0006349  29.5408 330.5297  1.86229664 48903
BEIDOU-3 M12 (C26)      
1 43602U 18067A   25278.92751737  .00000022  00000+0  00000+0 0  9994
2 43602  54.1860 189.6642 0008445  33.2544 326.8359  1.86227562 48387
BEIDOU-3 M11 (C25)      
1 43603U 18067B   25274.22919078 -.00000008  00000+0  00000+0 0  9993
2 43603  54.1837 189.7877 0004957  22.9076 337.1408  1.86227140 48328
BEIDOU-3 M13 (C32)      
1 43622U 18072A   25278.48211825  .00000022  00000+0  00000+0 0  9992
2 43622  56.3339  71.0707 0012517 336.8112  23.1446  1.86231649 47911
BEIDOU-3 M14 (C33)      
1 43623U 18072B   25278.88454490  .00000019  00000+0  00000+0 0  9990
2 43623  56.4022  71.0596 0002950  15.4523 344.5667  1.86231022 47914
BEIDOU-3 M16 (C35)      
1 43647U 18078A   25280.11720914 -.00000030  00000+0  00000+0 0  9992
2 43647  54.3204 308.8506 0005939  19.1765 340.9020  1.86232173 47449
BEIDOU-3 M15 (C34)      
1 43648U 18078B   25280.24639541 -.00000031  00000+0  00000+0 0  9993
2 43648  54.3157 308.8472 0002495  21.5249 338.5411  1.86232169 47461
BEIDOU-3 G1 (C59)       
1 43683U 18085A   25280.66765453 -.00000271  00000+0  00000+0 0  9994
2 43683   2.9377 104.5339 0003409  14.2430 278.2380  1.00273005 25521
BEIDOU-3 M17 (C36)      
1 43706U 18093A   25273.73175409 -.00000007  00000+0  00000+0 0  9992
2 43706  54.1767 191.1001 0008346 297.1089 269.6607  1.86228378 46700
BEIDOU-3 M18 (C37)      
1 43707U 18093B   25279.19124669  .00000023  00000+0  00000+0 0  9998
2 43707  54.1766 190.9068 0007139 332.6915  27.3070  1.86229821 46800
BEIDOU-3 IGSO-1 (C38)   
1 44204U 19023A   25280.23190351 -.00000218  00000+0  00000+0 0  9990
2 44204  58.3421  40.2656 0025804 217.0638 320.5289  1.00263811  4676
BEIDOU-2 G8 (C01)       
1 44231U 19027A   25280.66731628 -.00000243  00000+0  00000+0 0  9997
2 44231   1.4894  74.4223 0006765 258.1164  68.8295  1.00272067 23542
BEIDOU-3 IGSO-2 (C39)   
1 44337U 19035A   25280.59290446 -.00000099  00000+0  00000+0 0  9992
2 44337  55.2140 161.0852 0037368 203.2111 343.3010  1.00291695 23136
BEIDOU-3 M24 (C46)      
1 44542U 19061A   25279.26270484  .00000023  00000+0  00000+0 0  9997
2 44542  54.4036 191.2933 0009011  10.1370 349.9168  1.86229365 41067
BEIDOU-3 M23 (C45)      
1 44543U 19061B   25280.08457059  .00000030  00000+0  00000+0 0  9993
2 44543  54.4018 191.2340 0005706 359.9177 103.9622  1.86229362 41088
BEIDOU-3 IGSO-3 (C40)   
1 44709U 19073A   25279.41587331 -.00000166  00000+0  00000+0 0  9993
2 44709  55.2385 283.6409 0045376 191.9978 167.8975  1.00264235 21914
BEIDOU-3 M22 (C44)      
1 44793U 19078A   25280.17754851 -.00000031  00000+0  00000+0 0  9990
2 44793  54.1666 308.7219 0004599  25.2166 334.8614  1.86232003 39934
BEIDOU-3 M21 (C43)      
1 44794U 19078B   25280.31368667 -.00000032  00000+0  00000+0 0  9994
2 44794  54.1401 308.6834 0002792  10.0848 349.9755  1.86227638 39948
BEIDOU-3 M19 (C41)      
1 44864U 19090A   25278.41824293  .00000023  00000+0  00000+0 0  9995
2 44864  56.3337  71.2264 0015587 285.9575  78.4565  1.86231374 39499
BEIDOU-3 M20 (C42)      
1 44865U 19090B   25280.41845036  .00000007  00000+0  00000+0 0  9999
2 44865  56.3374  71.1941 0012973 300.9204  54.1480  1.86231211 39504
BEIDOU-3 G2 (C60)       
1 45344U 20017A   25280.68803042 -.00000137  00000+0  00000+0 0  9998
2 45344   2.8746  42.4823 0002055 258.1217  43.7105  1.00270382 20724
BEIDOU-3 G3 (C61)       
1 45807U 20040A   25280.62709507 -.00000350  00000+0  00000+0 0  9990
2 45807   1.8260  65.8396 0004043 310.3804 336.6781  1.00271864 19531
BEIDOU-3 G4 (C62)       
1 56564U 23066A   25280.67235832 -.00000111  00000+0  00000+0 0  9998
2 56564   0.9670 297.3104 0005388 221.1607 260.1614  1.00268207  8867
BEIDOU-3 M28 (C50)      
1 58654U 23207A   25278.78147769  .00000018  00000+0  00000+0 0  9992
2 58654  55.5249  70.9007 0000155 144.8172 215.1949  1.86229733 12107
BEIDOU-3 M26 (C48)      
1 58655U 23207B   25279.11663394  .00000015  00000+0  00000+0 0  9995
2 58655  55.5272  70.8755 0001609 225.7951 134.2007  1.86231320 12091
BEIDOU-3 M25 (C47)      
1 61186U 24168B   25280.08853188 -.00000032  00000+0  00000+0 0  9995
2 61186  54.6991 311.0305 0005304 281.5758 127.1736  1.86229865  7077
BEIDOU-3 M27 (C49)      
1 61187U 24168C   25273.45840134 -.00000030  00000+0  00000+0 0  9994
2 61187  54.7002 311.2448 0001440 305.2041 113.3065  1.86230340  4426
